OBJECT_NAME,OBJECT_ID,EPOCH,MEAN_MOTION,ECCENTRICITY,INCLINATION,RA_OF_ASC_NODE,ARG_OF_PERICENTER,MEAN_ANOMALY,EPHEMERIS_TYPE,CLASSIFICATION_TYPE,NORAD_CAT_ID,ELEMENT_SET_NO,REV_AT_EPOCH,BSTAR,MEAN_MOTION_DOT,MEAN_MOTION_DDOT
STARLINK-36264,2026-057P,2026-06-06T22:00:03.000096,15.58819527,.00012833,97.2849,284.7071,72.6043,5.8118,0,U,68307,999,603,-.11860814E-1,-.838307E-2,0
STARLINK-37138,2026-057Q,2026-06-06T22:00:03.000096,15.49177355,.0001182,97.2852,284.5220,82.4474,280.3717,0,U,68308,999,603,.49163585E-3,.26728E-3,0
STARLINK-37149,2026-057R,2026-06-06T22:00:03.000096,15.54437238,.00012236,97.2849,284.6869,79.0751,305.2917,0,U,68309,999,595,-.41925303E-1,-.2403306E-1,0
STARLINK-37148,2026-057S,2026-06-06T22:00:03.000096,15.56946216,.00016555,97.2850,284.7093,60.8000,23.3292,0,U,68310,999,603,-.26036372E-1,-.1679995E-1,0
STARLINK-37140,2026-057T,2026-06-06T22:00:03.000096,15.49170693,.00010433,97.2851,284.6947,78.1322,326.4494,0,U,68311,999,604,.57666068E-3,.31377E-3,0
STARLINK-36854,2026-057U,2026-06-06T22:00:03.000096,15.49170520,.00015168,97.2852,284.7291,95.6451,27.0076,0,U,68312,999,603,.74031945E-3,.40354E-3,0
STARLINK-36815,2026-057V,2026-06-06T22:00:03.000096,15.49176838,.00014577,97.2845,284.6257,92.3038,151.1687,0,U,68313,999,603,.65020515E-3,.35417E-3,0
STARLINK-37155,2026-057W,2026-06-06T22:00:03.000096,15.49159879,.00014381,97.2853,284.7285,89.1270,35.3111,0,U,68314,999,603,.89655525E-3,.48925E-3,0
STARLINK-37150,2026-057X,2026-06-06T22:00:03.000096,15.49173254,.00006469,97.2853,284.5730,98.3318,21.6712,0,U,68315,999,600,.68967591E-3,.37577E-3,0
STARLINK-37154,2026-057Y,2026-06-06T14:16:01.164288,15.49212505,.00007887,97.2888,284.1943,109.5562,250.5774,0,U,68316,999,1226,.1311383E-2,.71945E-3,0
STARLINK-37139,2026-057Z,2026-06-06T22:00:03.000096,15.49174975,.00012065,97.2853,284.6646,63.9979,274.0209,0,U,68317,999,595,.49475922E-3,.26897E-3,0
STARLINK-37113,2026-057AA,2026-06-06T22:00:03.000096,15.49164768,.0001268,97.2854,284.5630,90.3261,5.8848,0,U,68318,999,587,.8314694E-3,.45353E-3,0
STARLINK-36987,2026-059A,2026-06-06T16:11:15.056448,15.30209154,.00014637,53.1594,294.6541,105.1760,254.9403,0,U,68321,999,1180,.98638461E-3,.28977E-3,0
STARLINK-37088,2026-059B,2026-06-06T21:05:21.202368,15.34448427,.00014391,53.1592,289.5264,59.9686,300.1459,0,U,68322,999,1189,.76418773E-3,.25571E-3,0
STARLINK-36983,2026-059C,2026-06-06T14:35:01.826592,15.34426106,.00011641,53.1589,290.6787,88.0049,272.1087,0,U,68323,999,1184,.12097916E-2,.40755E-3,0
STARLINK-37164,2026-059D,2026-06-06T15:10:38.509824,15.30233921,.00013186,53.1599,295.1052,81.7531,278.3620,0,U,68324,999,1292,.1122092E-2,.33057E-3,0
STARLINK-36309,2026-059E,2026-06-06T15:27:36.480672,15.35466249,.00013033,53.1605,290.9038,71.5417,288.5727,0,U,68325,999,1185,.11427124E-2,.39774E-3,0
STARLINK-37206,2026-059F,2026-06-06T16:15:49.431744,15.30234028,.00012683,53.1592,294.6696,65.4227,294.6906,0,U,68326,999,1180,.95415005E-3,.28036E-3,0
STARLINK-37199,2026-059G,2026-06-06T15:48:28.424448,15.30232575,.00008138,53.1592,294.5750,105.3347,254.7743,0,U,68327,999,1180,.10592368E-2,.31176E-3,0
STARLINK-36245,2026-059H,2026-06-06T15:06:04.861152,15.30234051,.00012502,53.1592,295.0862,89.1732,270.9412,0,U,68328,999,1179,.10181559E-2,.29949E-3,0
STARLINK-37204,2026-059J,2026-06-06T20:32:01.286880,15.34449907,.00010658,53.1585,289.3802,83.4082,276.7042,0,U,68329,999,1189,.1268586E-2,.42798E-3,0
STARLINK-37001,2026-059K,2026-06-06T21:13:11.857728,15.30403967,.00013575,53.1601,293.8536,77.8813,282.2340,0,U,68330,999,1183,-.11291571E-1,-.322764E-2,0
STARLINK-36932,2026-059L,2026-06-06T15:00:47.287584,15.35472075,.00013583,53.1606,290.7854,134.6969,225.4145,0,U,68331,999,1185,.156298E-2,.54662E-3,0
STARLINK-37205,2026-059M,2026-06-06T15:39:32.616576,15.30221561,.00024016,53.1591,295.2360,85.5083,274.6192,0,U,68332,999,1179,.13950264E-2,.41216E-3,0
STARLINK-37180,2026-059N,2026-06-06T22:00:03.000096,15.34341559,.00016777,53.1594,289.4566,56.5183,106.9967,0,U,68333,999,587,.59696116E-3,.19809E-3,0
STARLINK-37191,2026-059P,2026-06-06T15:28:52.647456,15.30252019,.00023246,53.1585,295.1857,86.4348,273.6919,0,U,68334,999,1179,.14315365E-2,.42351E-3,0
STARLINK-37217,2026-059Q,2026-06-06T20:53:15.392256,15.49308962,.00016204,53.1574,288.0425,39.5439,320.5688,0,U,68335,999,1191,.10820239E-2,.60195E-3,0
STARLINK-37143,2026-059R,2026-06-06T15:19:45.848640,15.30237317,.0002053,53.1598,295.1428,80.8525,279.2708,0,U,68336,999,1179,.11496E-2,.33884E-3,0
STARLINK-36237,2026-059S,2026-06-06T20:38:05.115552,15.34471695,.0001443,53.1583,289.3961,107.8289,252.2871,0,U,68337,999,1189,.12103009E-2,.40832E-3,0
STARLINK-36254,2026-059T,2026-06-06T15:35:29.611392,15.34450021,.00012743,53.1588,290.2176,67.3115,292.8023,0,U,68338,999,1186,.11368947E-2,.38293E-3,0
