STARLINK-36264          
1 68307U 26057P   26157.91670139 -.00838307  00000+0 -11861-1 0  9999
2 68307  97.2849 284.7071 0001283  72.6043   5.8118 15.58819527  6033
STARLINK-37138          
1 68308U 26057Q   26157.91670139  .00026728  00000+0  49164-3 0  9993
2 68308  97.2852 284.5220 0001182  82.4474 280.3717 15.49177355  6038
STARLINK-37149          
1 68309U 26057R   26157.91670139 -.02403306  00000+0 -41925-1 0  9994
2 68309  97.2849 284.6869 0001223  79.0751 305.2917 15.54437238  5955
STARLINK-37148          
1 68310U 26057S   26157.91670139 -.01679995  00000+0 -26036-1 0  9990
2 68310  97.2850 284.7093 0001655  60.8000  23.3292 15.56946216  6030
STARLINK-37140          
1 68311U 26057T   26157.91670139  .00031377  00000+0  57666-3 0  9999
2 68311  97.2851 284.6947 0001043  78.1322 326.4494 15.49170693  6041
STARLINK-36854          
1 68312U 26057U   26157.91670139  .00040354  00000+0  74032-3 0  9991
2 68312  97.2852 284.7291 0001516  95.6451  27.0076 15.49170520  6036
STARLINK-36815          
1 68313U 26057V   26157.91670139  .00035417  00000+0  65021-3 0  9994
2 68313  97.2845 284.6257 0001457  92.3038 151.1687 15.49176838  6034
STARLINK-37155          
1 68314U 26057W   26157.91670139  .00048925  00000+0  89656-3 0  9993
2 68314  97.2853 284.7285 0001438  89.1270  35.3111 15.49159879  6038
STARLINK-37150          
1 68315U 26057X   26157.91670139  .00037577  00000+0  68968-3 0  9998
2 68315  97.2853 284.5730 0000646  98.3318  21.6712 15.49173254  6002
STARLINK-37154          
1 68316U 26057Y   26157.59445792  .00071945  00000+0  13114-2 0  9997
2 68316  97.2888 284.1943 0000788 109.5562 250.5774 15.49212505 12265
STARLINK-37139          
1 68317U 26057Z   26157.91670139  .00026897  00000+0  49476-3 0  9996
2 68317  97.2853 284.6646 0001206  63.9979 274.0209 15.49174975  5954
STARLINK-37113          
1 68318U 26057AA  26157.91670139  .00045353  00000+0  83147-3 0  9998
2 68318  97.2854 284.5630 0001268  90.3261   5.8848 15.49164768  5873
STARLINK-36987          
1 68321U 26059A   26157.67447982  .00028977  00000+0  98638-3 0  9999
2 68321  53.1594 294.6541 0001463 105.1760 254.9403 15.30209154 11801
STARLINK-37088          
1 68322U 26059B   26157.87871762  .00025571  00000+0  76419-3 0  9999
2 68322  53.1592 289.5264 0001439  59.9686 300.1459 15.34448427 11897
STARLINK-36983          
1 68323U 26059C   26157.60766003  .00040755  00000+0  12098-2 0  9995
2 68323  53.1589 290.6787 0001164  88.0049 272.1087 15.34426106 11848
STARLINK-37164          
1 68324U 26059D   26157.63239016  .00033057  00000+0  11221-2 0  9992
2 68324  53.1599 295.1052 0001318  81.7531 278.3620 15.30233921 12920
STARLINK-36309          
1 68325U 26059E   26157.64417223  .00039774  00000+0  11427-2 0  9992
2 68325  53.1605 290.9038 0001303  71.5417 288.5727 15.35466249 11858
STARLINK-37206          
1 68326U 26059F   26157.67765546  .00028036  00000+0  95415-3 0  9999
2 68326  53.1592 294.6696 0001268  65.4227 294.6906 15.30234028 11801
STARLINK-37199          
1 68327U 26059G   26157.65866232  .00031176  00000+0  10592-2 0  9993
2 68327  53.1592 294.5750 0000813 105.3347 254.7743 15.30232575 11805
STARLINK-36245          
1 68328U 26059H   26157.62922293  .00029949  00000+0  10182-2 0  9991
2 68328  53.1592 295.0862 0001250  89.1732 270.9412 15.30234051 11791
STARLINK-37204          
1 68329U 26059J   26157.85557045  .00042798  00000+0  12686-2 0  9994
2 68329  53.1585 289.3802 0001065  83.4082 276.7042 15.34449907 11899
STARLINK-37001          
1 68330U 26059K   26157.88416502 -.00322764  00000+0 -11292-1 0  9998
2 68330  53.1601 293.8536 0001357  77.8813 282.2340 15.30403967 11836
STARLINK-36932          
1 68331U 26059L   26157.62554731  .00054662  00000+0  15630-2 0  9996
2 68331  53.1606 290.7854 0001358 134.6969 225.4145 15.35472075 11851
STARLINK-37205          
1 68332U 26059M   26157.65246084  .00041216  00000+0  13950-2 0  9993
2 68332  53.1591 295.2360 0002401  85.5083 274.6192 15.30221561 11796
STARLINK-37180          
1 68333U 26059N   26157.91670139  .00019809  00000+0  59696-3 0  9996
2 68333  53.1594 289.4566 0001677  56.5183 106.9967 15.34341559  5879
STARLINK-37191          
1 68334U 26059P   26157.64505379  .00042351  00000+0  14315-2 0  9996
2 68334  53.1585 295.1857 0002324  86.4348 273.6919 15.30252019 11797
STARLINK-37217          
1 68335U 26059Q   26157.87031704  .00060195  00000+0  10820-2 0  9991
2 68335  53.1574 288.0425 0001620  39.5439 320.5688 15.49308962 11914
STARLINK-37143          
1 68336U 26059R   26157.63872510  .00033884  00000+0  11496-2 0  9999
2 68336  53.1598 295.1428 0002053  80.8525 279.2708 15.30237317 11793
STARLINK-36237          
1 68337U 26059S   26157.85978143  .00040832  00000+0  12103-2 0  9990
2 68337  53.1583 289.3961 0001443 107.8289 252.2871 15.34471695 11890
STARLINK-36254          
1 68338U 26059T   26157.64964828  .00038293  00000+0  11369-2 0  9994
2 68338  53.1588 290.2176 0001274  67.3115 292.8023 15.34450021 11861
